     2.11           N: GPS NAV DATA                         RINEX VERSION / TYPE
teqc  2013Mar15     General GPS Account 20150102 01:31:33UTCPGM / RUN BY / DATE
    16                                                      LEAP SECONDS
    1.3970D-08 -7.4506D-09 -5.9605D-08  1.1921D-07          ION ALPHA
    1.2698D+05 -1.9661D+05  6.5536D+04  2.6214D+05          ION BETA
   -2.793967723846D-09-1.776356839400D-15   503808     1825 DELTA-UTC: A0,A1,T,W
Linux 2.4.21-27.ELsmp|Opteron|gcc|Linux x86_64|=+           COMMENT
MAKERINEX 2.0.11285 BKG/GOWETTZELL+TBSM 2015-01-01 01:04    COMMENT
                                                            END OF HEADER
 2 15  1  1  2  0  0.0 5.391943268478D-04 2.273736754432D-12 0.000000000000D+00
    2.200000000000D+01 8.437500000000D-01 5.155214735386D-09-2.056405805305D+00
    2.980232238770D-08 1.412529207300D-02 5.779787898064D-06 5.153734960556D+03
    3.528000000000D+05 1.378357410431D-07 6.685964008552D-01-1.415610313416D-07
    9.402420748450D-01 2.564062500000D+02-2.348707563658D+00-8.156768333570D-09
    4.382325398586D-10 1.000000000000D+00 1.825000000000D+03 0.000000000000D+00
    2.000000000000D+00 0.000000000000D+00-2.048909664154D-08 2.200000000000D+01
    3.456000000000D+05
 5 15  1  1  2  0  0.0-2.988195046782D-04 4.888534022029D-12 0.000000000000D+00
    2.000000000000D+00-2.000000000000D+01 4.909133056525D-09 2.605173497876D-01
   -9.592622518539D-07 4.037761013024D-03 8.283182978630D-06 5.153743595123D+03
    3.528000000000D+05 2.793967723846D-08 1.738571967392D+00 6.891787052155D-08
    9.462882655274D-01 2.112500000000D+02 4.214111179903D-01-8.201413050345D-09
   -3.443000557650D-10 1.000000000000D+00 1.825000000000D+03 0.000000000000D+00
    2.000000000000D+00 0.000000000000D+00-1.071020960808D-08 2.000000000000D+00
    3.456000000000D+05
 6 15  1  1  2  0  0.0 3.988109529018D-05 9.208633855451D-12 0.000000000000D+00
    4.800000000000D+01 5.218750000000D+00 4.794842581582D-09 1.352496378960D-01
    2.607703208923D-07 5.043536657467D-04 6.029382348061D-06 5.153660556793D+03
    3.528000000000D+05 3.352761268616D-08 6.944422514729D-01-1.676380634308D-08
    9.615395244379D-01 2.654062500000D+02 2.352125936538D+00-8.141053393266D-09
    2.785830326729D-10 1.000000000000D+00 1.825000000000D+03 0.000000000000D+00
    2.000000000000D+00 0.000000000000D+00 4.656612873077D-09 4.800000000000D+01
    3.456000000000D+05
 9 15  1  1  2  0  0.0-4.230206832290D-05-1.034550223267D-11 0.000000000000D+00
    9.100000000000D+01 9.712500000000D+01 4.389111395536D-09-1.128752667182D+00
    4.855915904045D-06 2.580813597888D-04 1.049973070621D-05 5.153686948776D+03
    3.528000000000D+05 2.980232238770D-08 2.788179528857D+00-1.117587089539D-08
    9.588932592389D-01 1.774375000000D+02 2.461677525356D+00-7.927115910482D-09
    1.750072897561D-11 1.000000000000D+00 1.825000000000D+03 0.000000000000D+00
    2.900000000000D+00 0.000000000000D+00 4.656612873077D-10 9.100000000000D+01
    3.456000000000D+05
10 15  1  1  2  0  0.0-1.568100415170D-04-1.818989403546D-12 0.000000000000D+00
    7.400000000000D+01-2.137500000000D+01 5.130213693993D-09 5.921045399193D-01
   -1.039355993271D-06 1.448456291109D-02 8.340924978256D-06 5.153644676208D+03
    3.528000000000D+05-2.477318048477D-07 1.754543869989D+00 1.173466444016D-07
    9.410851355162D-01 2.109687500000D+02 9.139467207037D-01-8.420350741407D-09
   -5.039495629507D-10 1.000000000000D+00 1.825000000000D+03 0.000000000000D+00
    2.900000000000D+00 0.000000000000D+00-3.259629011154D-09 7.400000000000D+01
    3.456000000000D+05
12 15  1  1  2  0  0.0 2.578967250884D-04 2.955857780762D-12 0.000000000000D+00
    5.900000000000D+01-8.890625000000D+01 3.832659645658D-09 2.590213194354D+00
   -4.768371582031D-06 5.103597533889D-03 6.070360541344D-06 5.153762205124D+03
    3.528000000000D+05-9.872019290924D-08-1.353455961056D+00-4.470348358154D-08
    9.888193215052D-01 2.759062500000D+02 4.975915631659D-01-7.781752712664D-09
   -2.689397738497D-10 1.000000000000D+00 1.825000000000D+03 0.000000000000D+00
    2.000000000000D+00 0.000000000000D+00-1.210719347000D-08 5.900000000000D+01
    3.456000000000D+05
17 15  1  1  2  0  0.0-1.473375596106D-04-2.273736754432D-12 0.000000000000D+00
    1.260000000000D+02-3.771875000000D+01 4.191960326259D-09-4.723542791546D-01
   -1.907348632813D-06 9.921416407451D-03 1.023337244987D-05 5.153695552826D+03
    3.528000000000D+05-1.862645149231D-09-3.060233667130D-01 1.210719347000D-07
    9.712725466345D-01 1.911875000000D+02-2.061690351096D+00-7.948545374534D-09
    2.746542975968D-10 1.000000000000D+00 1.825000000000D+03 0.000000000000D+00
    2.000000000000D+00 0.000000000000D+00-1.071020960808D-08 1.260000000000D+02
    3.456000000000D+05
24 15  1  1  1 59 44.0-4.100240767002D-05-5.684341886081D-13 0.000000000000D+00
    8.700000000000D+01 5.846875000000D+01 4.892703800752D-09-2.376159995299D+00
    2.965331077576D-06 2.804504591040D-03 2.790242433548D-06 5.153692264557D+03
    3.527840000000D+05 1.862645149231D-09-2.458502716632D+00-9.685754776001D-08
    9.550702432178D-01 3.236250000000D+02 2.310143239310D-01-8.443565994130D-09
    1.210764718925D-10 1.000000000000D+00 1.825000000000D+03 0.000000000000D+00
    2.000000000000D+00 0.000000000000D+00 2.793967723846D-09 8.700000000000D+01
    3.456000000000D+05
28 15  1  1  1 59 44.0 4.092948511243D-04 2.728484105319D-12 0.000000000000D+00
    9.000000000000D+00-8.912500000000D+01 4.071598169835D-09 3.046128737660D-01
   -4.604458808899D-06 1.974905061070D-02 6.068497896194D-06 5.153685710907D+03
    3.527840000000D+05-2.887099981308D-07-1.329282908986D+00-6.705522537231D-08
    9.879715999771D-01 2.836875000000D+02-1.685449956522D+00-8.262129865158D-09
   -3.496574217780D-10 1.000000000000D+00 1.825000000000D+03 0.000000000000D+00
    2.000000000000D+00 0.000000000000D+00-1.117587089539D-08 9.000000000000D+00
    3.456000000000D+05
25 15  1  1  2  0  0.0 6.050802767277D-06-2.273736754432D-12 0.000000000000D+00
    7.500000000000D+01-8.387500000000D+01 4.212675474843D-09 1.864050373134D+00
   -4.418194293976D-06 3.945498494431D-03 5.694106221199D-06 5.153746059418D+03
    3.528000000000D+05-1.378357410431D-07-1.398406964417D+00 5.215406417847D-08
    9.774059286973D-01 2.776875000000D+02 6.655339105931D-01-8.047120909172D-09
   -2.571535686212D-10 1.000000000000D+00 1.825000000000D+03 0.000000000000D+00
    2.000000000000D+00 0.000000000000D+00 5.122274160385D-09 7.500000000000D+01
    3.461700000000D+05
13 15  1  1  2  0  0.0-7.465621456504D-05-3.410605131648D-12 0.000000000000D+00
    1.400000000000D+01 9.440625000000D+01 3.988380417768D-09-2.520919455054D+00
    4.978850483894D-06 5.862767924555D-03 9.357929229736D-06 5.155890914917D+03
    3.528000000000D+05-1.676380634308D-08 2.900938602137D+00 6.891787052155D-08
    9.757683352735D-01 2.065625000000D+02 2.200391135626D+00-7.657818978898D-09
    5.928818387655D-11 1.000000000000D+00 1.825000000000D+03 0.000000000000D+00
    2.000000000000D+00 0.000000000000D+00-1.117587089539D-08 1.400000000000D+01
    3.506700000000D+05
26 15  1  1  2  0  0.0-1.767762005329D-04-1.330136001343D-11 0.000000000000D+00
    7.200000000000D+01 9.750000000000D+01 4.018738825174D-09-1.756733851039D+00
    5.284324288368D-06 2.144726272672D-02 8.810311555862D-06 5.153692066193D+03
    3.528000000000D+05 3.986060619354D-07 2.891210670895D+00 2.067536115646D-07
    9.731174311613D-01 2.117812500000D+02 1.300589974016D+00-7.586744589793D-09
    9.714690370134D-11 1.000000000000D+00 1.825000000000D+03 0.000000000000D+00
    2.000000000000D+00 0.000000000000D+00-6.519258022308D-09 7.200000000000D+01
    3.511200000000D+05
29 15  1  1  2  0  0.0 5.831141024828D-04 2.273736754432D-12 0.000000000000D+00
    5.900000000000D+01-3.243750000000D+01 4.041954077897D-09 2.323830877249D+00
   -1.795589923859D-06 1.218384946696D-03 1.040287315845D-05 5.153581123352D+03
    3.528000000000D+05-7.636845111847D-08-2.967911116154D-01 5.774199962616D-08
    9.720765269120D-01 1.845937500000D+02-8.712155141260D-01-7.685320124431D-09
    3.053698627377D-10 1.000000000000D+00 1.825000000000D+03 0.000000000000D+00
    2.000000000000D+00 0.000000000000D+00-9.778887033463D-09 5.900000000000D+01
    3.512400000000D+05
 2 15  1  1  4  0  0.0 5.392106249928D-04 2.273736754432D-12 0.000000000000D+00
    2.300000000000D+01 1.153125000000D+01 5.341651072637D-09-1.006362904289D+00
    7.282942533493D-07 1.412533514667D-02 5.789101123810D-06 5.153732105255D+03
    3.600000000000D+05 3.091990947723D-07 6.685381898819D-01 2.216547727585D-07
    9.402435319114D-01 2.572500000000D+02-2.348601705442D+00-8.460709565371D-09
    2.435815747217D-10 1.000000000000D+00 1.825000000000D+03 0.000000000000D+00
    2.000000000000D+00 0.000000000000D+00-2.048909664154D-08 2.300000000000D+01
    3.528000000000D+05
 5 15  1  1  4  0  0.0-2.987841144204D-04 4.888534022029D-12 0.000000000000D+00
    3.000000000000D+00-2.540625000000D+01 4.926633785501D-09 1.310740973851D+00
   -1.180917024612D-06 4.037145408802D-03 8.303672075272D-06 5.153742324829D+03
    3.600000000000D+05-1.005828380585D-07 1.738513784214D+00-1.862645149231D-08
    9.462855181673D-01 2.128125000000D+02 4.213287776462D-01-8.149625178886D-09
   -4.650193699233D-10 1.000000000000D+00 1.825000000000D+03 0.000000000000D+00
    2.000000000000D+00 0.000000000000D+00-1.071020960808D-08 3.000000000000D+00
    3.528000000000D+05
 6 15  1  1  4  0  0.0 3.994721919298D-05 9.208633855451D-12 0.000000000000D+00
    4.900000000000D+01 7.343750000000D+00 4.820557938445D-09 1.186286505435D+00
    3.669410943985D-07 5.037211813033D-04 6.269663572311D-06 5.153659111023D+03
    3.600000000000D+05 4.284083843231D-08 6.943836396601D-01 5.587935447693D-09
    9.615415169323D-01 2.604375000000D+02 2.351280595177D+00-8.139624762329D-09
    2.732256666600D-10 1.000000000000D+00 1.825000000000D+03 0.000000000000D+00
    2.000000000000D+00 0.000000000000D+00 4.656612873077D-09 4.900000000000D+01
    3.528000000000D+05
